[{"OBJECT_NAME":"STARLINK-32256","OBJECT_ID":"2024-138H","EPOCH":"2026-03-09T21:20:12.998976","MEAN_MOTION":15.30186397,"ECCENTRICITY":0.00011096,"INCLINATION":53.16,"RA_OF_ASC_NODE":308.9896,"ARG_OF_PERICENTER":94.3326,"MEAN_ANOMALY":265.7802,"EPHEMERIS_TYPE":0,"CLASSIFICATION_TYPE":"U","NORAD_CAT_ID":60362,"ELEMENT_SET_NO":999,"REV_AT_EPOCH":9064,"BSTAR":4.412005e-5,"MEAN_MOTION_DOT":9.47e-6,"MEAN_MOTION_DDOT":0},{"OBJECT_NAME":"BANDWAGON-2 OBJECT D","OBJECT_ID":"2024-247D","EPOCH":"2026-03-09T12:32:33.670752","MEAN_MOTION":15.29076102,"ECCENTRICITY":0.00034883,"INCLINATION":44.9954,"RA_OF_ASC_NODE":115.671,"ARG_OF_PERICENTER":351.1453,"MEAN_ANOMALY":8.9368,"EPHEMERIS_TYPE":0,"CLASSIFICATION_TYPE":"U","NORAD_CAT_ID":62380,"ELEMENT_SET_NO":999,"REV_AT_EPOCH":6773,"BSTAR":0.00040119131,"MEAN_MOTION_DOT":0.00011259,"MEAN_MOTION_DDOT":0}]
